SCD 1                   
1 22490U 93009B   26164.87128389  .00000363  00000+0  48347-4 0  9994
2 22490  24.9681 228.0525 0042177 102.7647  57.9732 14.46117773760637
SCD 2                   
1 25504U 98060A   26164.15409937  .00000382  00000+0  55754-4 0  9998
2 25504  24.9947  97.0290 0016973  80.8885 302.2821 14.45524442459745
SENTINEL-1A             
1 39634U 14016A   26164.93892507 -.00000584  00000+0 -11414-3 0  9991
2 39634  98.1776 172.5188 0001420  82.9624 277.1737 14.59198006649540
SENTINEL-2A             
1 40697U 15028A   26164.92797184 -.00000159  00000+0 -43910-4 0  9995
2 40697  98.5690 239.8255 0001105  90.6186 269.5124 14.30813454573261
SCATSAT 1               
1 41790U 16059H   26164.89937437  .00001008  00000+0  13922-3 0  9999
2 41790  98.1191 228.6315 0053281 258.3738 101.1490 14.79519288101107
SENTINEL-2B             
1 42063U 17013A   26164.92077681 -.00000154  00000+0 -41938-4 0  9996
2 42063  98.5697 239.7410 0001179  85.8172 274.3146 14.30815061484176
SAUDISAT 5B             
1 43833U 18102C   26164.97540399  .00005809  00000+0  21319-3 0  9998
2 43833  97.3182 229.6818 0011473 141.3481 218.8583 15.28276640415306
SENTINEL-2C             
1 60989U 24157A   26164.81590148  .00000089  00000+0  50484-4 0  9997
2 60989  98.5692 239.6455 0001080  79.7053 280.4251 14.30816912 92500
SENTINEL-1C             
1 62261U 24235A   26164.97451628  .00000006  00000+0  10995-4 0  9997
2 62261  98.1828 172.3335 0001360  89.3544 270.7811 14.58603314 80944
SENTINEL-1D             
1 66315U 25251A   26164.94415094  .00000169  00000+0  45647-4 0  9996
2 66315  98.1827 172.3495 0001358  88.0010 272.1345 14.59197614 32256
